CUTE-1 (CO-55)          
1 27844U 03031E   20216.49713268  .00000036  00000-0  35973-4 0  9993
2 27844  98.6816 223.5211 0008631 281.0166  79.0040 14.22249305886782
CUBESAT XI-IV (CO-57)   
1 27848U 03031J   20216.46709995  .00000028  00000-0  32457-4 0  9991
2 27848  98.6882 224.0524 0008621 295.3314  64.6970 14.21834840886622
CUBESAT XI-V            
1 28895U 05043F   20216.85390415  .00000077  00000-0  23619-4 0  9999
2 28895  98.0160 351.8980 0017945 128.7665 231.5144 14.63787362787541
CUTE-1.7+APD II (CO-65) 
1 32785U 08021C   20216.79186963  .00000174  00000-0  24376-4 0  9994
2 32785  97.5751 202.7325 0012523 343.4336  16.6470 14.88494817664915
AAUSAT-II               
1 32788U 08021F   20216.50252350  .00000576  00000-0  57477-4 0  9994
2 32788  97.4917 218.9112 0009951 256.2567 103.7547 14.95107445666340
DELFI-C3 (DO-64)        
1 32789U 08021G   20216.85152349  .00001289  00000-0  88025-4 0  9995
2 32789  97.4153 257.9901 0013048 147.0279 213.1766 15.07829457668957
SEEDS II (CO-66)        
1 32791U 08021J   20216.50954417  .00000250  00000-0  30573-4 0  9998
2 32791  97.5424 208.5864 0011988 311.0114  49.0068 14.91081981665473
SWISSCUBE               
1 35932U 09051B   20216.48405424  .00000106  00000-0  34938-4 0  9997
2 35932  98.6114  40.2795 0007309 352.5731   7.5357 14.56411421576717
BEESAT-1                
1 35933U 09051C   20216.80750902  .00000079  00000-0  28764-4 0  9997
2 35933  98.6107  42.4808 0005836   7.7204 352.4082 14.56485014576790
ITUPSAT1                
1 35935U 09051E   20216.48635978  .00000062  00000-0  25468-4 0  9998
2 35935  98.6214  42.3428 0008121   4.3814 355.7452 14.55629149576546
TISAT 1                 
1 36799U 10035E   20216.46910473  .00000167  00000-0  22875-4 0  9990
2 36799  98.1978  28.5580 0012462 169.6441 190.5035 14.91392445546136
M-CUBED & EXP-1 PRIME   
1 37855U 11061F   20216.73523970  .00000649  00000-0  40032-4 0  9996
2 37855 101.7163 329.5191 0170474 294.5790  63.7741 15.06391784478324
AEROCUBE 4.5A           
1 38767U 12048K   20216.79171343  .00000372  00000-0  45781-4 0  9993
2 38767  64.6665  88.2998 0137055 119.5409 241.9448 14.92327873 48864
AEROCUBE 4.5B           
1 38768U 12048L   20216.55093363  .00000661  00000-0  64691-4 0  9995
2 38768  64.6671  56.7645 0126434 115.0928 246.3369 14.96013766 48922
STRAND-1                
1 39090U 13009E   20216.55869199  .00000025  00000-0  23700-4 0  9990
2 39090  98.4532  59.8002 0009888 138.6505 221.5431 14.35138980389447
SOMP                    
1 39134U 13015E   20216.71355744  .00000957  00000-0  51646-4 0  9994
2 39134  64.8629 124.5417 0029827 236.0448 123.7844 15.21154532403247
BEESAT-3                
1 39135U 13015F   20216.27386589  .00000616  00000-0  39422-4 0  9997
2 39135  64.8668 150.1961 0035039 235.6646 124.1164 15.18256043402714
BEESAT-2                
1 39136U 13015G   20216.80164453  .00000871  00000-0  52477-4 0  9999
2 39136  64.8717 153.6257 0033284 274.6421  85.0904 15.17649760402303
NEE-01 PEGASO           
1 39151U 13018B   20216.72153652  .00000101  00000-0  20273-4 0  9994
2 39151  97.9754 315.2167 0015838 310.4518  49.5312 14.80186223392670
ESTCUBE 1               
1 39161U 13021C   20216.44510117  .00000066  00000-0  18273-4 0  9998
2 39161  97.9639 298.5321 0010832  89.0560 271.1863 14.72335770388957
POPACS 1                
1 39268U 13055D   20216.77703622  .00004520  00000-0  12116-3 0  9992
2 39268  80.9989 246.1298 0616685  81.6961 285.3630 14.39617318356271
POPACS 2                
1 39269U 13055E   20216.88470226  .00003261  00000-0  92797-4 0  9991
2 39269  81.0144 285.1193 0677395 182.5463 177.2217 14.25607266352741
POPACS 3                
1 39270U 13055F   20216.57361828  .00000770  00000-0  23932-4 0  9993
2 39270  81.0182 307.7529 0708566 247.4863 104.9858 14.16959925352503
ZACUBE-1 (TSHEPISOSAT)  
1 39417U 13066B   20216.85302478  .00000177  00000-0  28376-4 0  9993
2 39417  97.5661 212.2423 0060182 121.6378 239.0727 14.81297814362052
WNISAT-1                
1 39423U 13066H   20216.34846853  .00000034  00000-0  16069-4 0  9992
2 39423  97.8001 134.6323 0176105 109.0831 252.9519 14.53128140355232
TRITON-1                
1 39427U 13066M   20216.46298772  .00000154  00000-0  32778-4 0  9998
2 39427  97.7267 174.7869 0112516 287.9980 189.5915 14.68027127358750
GOMX-1                  
1 39430U 13066Q   20216.83890568  .00000137  00000-0  33624-4 0  9996
2 39430  97.7922 152.5078 0152091  35.6852 325.4414 14.59417998356714
CUBEBUG-2 (LO-74)       
1 39440U 13066AA  20216.87551693  .00000138  00000-0  26123-4 0  9991
2 39440  97.6337 196.7654 0079840 185.1374 174.9027 14.76033481359578
NEE-02 KRYSAOR          
1 39441U 13066AB  20216.37647059  .00000066  00000-0  16612-4 0  9991
2 39441  97.6412 193.7853 0081127 196.0306 163.8335 14.75032129359327
FUNCUBE-1 (AO-73)       
1 39444U 13066AE  20216.89096740  .00000220  00000-0  33117-4 0  9997
2 39444  97.5601 214.5344 0059423 113.6549 247.0918 14.82155552360399
UWE-3                   
1 39446U 13066AG  20216.91834096  .00000147  00000-0  26079-4 0  9993
2 39446  97.6004 203.9748 0070535 153.7687 206.7126 14.78566681359580
AEROCUBE 5A             
1 39465U 13072D   20216.84159594  .00002414  00000-0  22669-3 0  9995
2 39465 120.4947 334.7828 0257446 294.1736  63.2606 14.76657339 48366
AEROCUBE 5B             
1 39466U 13072E   20216.87707744  .00003907  00000-0  29525-3 0  9991
2 39466 120.4931  14.2618 0230912 304.3371  53.6037 14.86358596 48629
BRITE-CA1 (TORONTO)     
1 40020U 14033L   20216.75954474  .00000038  00000-0  15054-4 0  9993
2 40020  97.7312  42.2606 0085910 281.9785  77.1799 14.66653327327690
DUCHIFAT-1              
1 40021U 14033M   20216.32618517  .00000152  00000-0  21265-4 0  9990
2 40021  97.9427 147.8526 0013939 128.2445 232.0030 14.90939657332877
NANOSATC-BR1            
1 40024U 14033Q   20216.44243843  .00000181  00000-0  24664-4 0  9990
2 40024  97.9269 144.1973 0013155 132.1232 228.1106 14.90104550332234
QB50P1                  
1 40025U 14033R   20216.89348625  .00000192  00000-0  26315-4 0  9991
2 40025  97.9140 141.1975 0013278 137.9510 222.2728 14.89163344332150
QB50P2                  
1 40032U 14033Y   20216.82351630  .00000173  00000-0  24542-4 0  9991
2 40032  97.9023 138.4935 0012745 135.0733 225.1517 14.88687667332030
PERSEUS-M2              
1 40037U 14033AD  20216.85103293  .00000035  00000-0  10216-4 0  9999
2 40037  97.8863 132.8402 0014976 151.7396 208.4635 14.86554378331709
PERSEUS-M1              
1 40039U 14033AF  20216.87270108  .00000071  00000-0  14300-4 0  9991
2 40039  97.8825 131.5860 0014868 149.7812 210.4264 14.86175361331615
POLYITAN-1              
1 40042U 14033AJ  20216.89750910  .00000198  00000-0  27098-4 0  9999
2 40042  97.9226 141.7625 0015615 129.8353 230.4241 14.88911033332059
TIGRISAT                
1 40043U 14033AK  20216.85924920  .00000118  00000-0  24798-4 0  9996
2 40043  97.7051  70.8136 0059179 204.2104 155.6323 14.74394721329035
AEROCUBE 6A             
1 40045U 14033AM  20216.40766162  .00000156  00000-0  29578-4 0  9994
2 40045  97.7304  76.0990 0056885 196.7177 163.2160 14.75596726329034
AEROCUBE 6B             
1 40046U 14033AN  20216.55338962  .00000233  00000-0  40595-4 0  9992
2 40046  97.7211  75.4567 0056351 195.3353 164.6152 14.75592348329058
UKUBE-1                 
1 40074U 14037F   20216.75805571  .00000166  00000-0  27049-4 0  9998
2 40074  98.4541  47.9105 0004235 343.5091  16.5983 14.84294979328779
BRITE-PL2 (HEWELIUSZ)   
1 40119U 14049B   20216.50212732  .00000112  00000-0  19766-4 0  9993
2 40119  97.8958 308.2603 0016370 318.9490  41.0492 14.84520403322677
FIREBIRD 4              
1 40378U 15003C   20216.83739532  .00002735  00000-0  10686-3 0  9993
2 40378  99.0925 286.8361 0124160 155.2824 205.4426 15.20220805304503
GRIFEX                  
1 40379U 15003D   20216.85623259  .00001348  00000-0  59948-4 0  9998
2 40379  99.0989 278.5008 0132636 181.0985 178.9972 15.16507996304023
EXOCUBE (CP10)          
1 40380U 15003E   20216.59332550  .00000973  00000-0  46752-4 0  9994
2 40380  99.1060 273.7077 0137384 197.2489 162.4046 15.14447339303685
AEROCUBE 8A             
1 40659U 15025J   20216.85612479  .00010228  00000-0  11015-3 0  9994
2 40659  55.0165  73.3292 0100386 300.2329  58.8798 15.58403416 50941
AEROCUBE 8B             
1 40660U 15025K   20216.69445325  .00010241  00000-0  10901-3 0  9990
2 40660  55.0139  71.8784 0099546 301.9316  57.2069 15.58782826 50930
TIANWANG 1C (TW-1C)     
1 40926U 15051B   20216.83486995  .00020478  00000-0  18942-3 0  9994
2 40926  97.0800 268.9644 0003524 254.7909 218.1068 15.67558333274449
TIANWANG 1A (TW-1A)     
1 40928U 15051D   20216.75850358  .00002418  00000-0  56987-4 0  9991
2 40928  97.1077 243.4351 0011039  24.8902 101.2389 15.42830872272664
EXACTVIEW 9             
1 40936U 15052G   20216.24646601  .00000745  00000-0  15009-4 0  9990
2 40936   6.0042   6.6282 0010813 208.7309 151.2223 14.76582474262152
AEROCUBE 5C             
1 40965U 15058B   20216.76994151 -.00000042  00000-0  14872-4 0  9999
2 40965  64.7795   0.6198 0170982  56.4578 305.2724 14.74541080 48289
AEROCUBE 7              
1 40966U 15058C   20216.46929707 -.00000004  00000-0  19260-4 0  9996
2 40966  64.7797 359.9447 0169891  56.2364 305.4793 14.74845132 48246
ATHENOXAT 1             
1 41168U 15077C   20216.32565972  .00000031  00000-0 -35010-4 0  9998
2 41168  14.9879  77.4705 0013947  64.2165 278.4965 15.14448444256450
GALASSIA                
1 41170U 15077E   20214.72186176  .00001599  00000-0  47171-4 0  9998
2 41170  14.9893  80.9571 0012500  65.3926 294.7697 15.14743329256295
VELOX-II                
1 41171U 15077F   20216.03011766  .00001321  00000-0  36949-4 0  9991
2 41171  14.9910 117.4579 0008719 335.6744  24.3165 15.11748216256089
